ONEWEB-0397             
1 50477U 21132J   25292.27407046  .00000071  00000+0  14754-3 0  9993
2 50477  87.9231  23.2939 0001588 101.2680 258.8631 13.18685264189862
ONEWEB-0398             
1 50478U 21132K   25292.11332768 -.00000480  00000+0 -13901-2 0  9993
2 50478  87.8833  69.0570 0002025  93.7257 266.4102 13.11416358184010
ONEWEB-0399             
1 50479U 21132L   25292.32864987 -.00000390  00000+0 -11366-2 0  9993
2 50479  87.8821  69.0326 0001293  79.2930 280.8343 13.11416908184030
ONEWEB-0400             
1 50480U 21132M   25292.25262808  .00000116  00000+0  26122-3 0  9992
2 50480  87.9229  23.2881 0001977 100.7801 259.3553 13.18685686189856
ONEWEB-0401             
1 50481U 21132N   25292.22129393  .00000052  00000+0  99876-4 0  9997
2 50481  87.9231  23.2917 0001643 105.7524 254.3789 13.18685182189854
ONEWEB-0402             
1 50482U 21132P   25292.26087572  .00000067  00000+0  13744-3 0  9999
2 50482  87.9228  23.2764 0001408 120.4826 239.6446 13.18685000189887
ONEWEB-0403             
1 50483U 21132Q   25292.28561561  .00000074  00000+0  15550-3 0  9992
2 50483  87.9234  23.2917 0001798  97.9452 262.1884 13.18685118189843
ONEWEB-0404             
1 50484U 21132R   25292.31001521  .00000176  00000+0  46075-3 0  9991
2 50484  87.8823  69.0440 0001537  82.5883 277.5420 13.11414481184123
ONEWEB-0405             
1 50485U 21132S   25292.30045978  .00000014  00000+0  16770-5 0  9997
2 50485  87.9232  23.2733 0001507 105.0761 255.0538 13.18684325190243
ONEWEB-0406             
1 50486U 21132T   25292.29057578  .00000016  00000+0  75757-5 0  9997
2 50486  87.9233  23.2992 0002016  87.3390 272.7973 13.18684973189873
ONEWEB-0407             
1 50487U 21132U   25292.28396775  .00000022  00000+0  22021-4 0  9994
2 50487  87.9229  23.2839 0001744 106.3934 253.7390 13.18684091189819
ONEWEB-0409             
1 50488U 21132V   25292.30831713  .00000587  00000+0  16201-2 0  9991
2 50488  87.8842  69.0058 0001889  87.6249 272.5096 13.11416992184016
ONEWEB-0412             
1 50489U 21132W   25292.27241345  .00000117  00000+0  26486-3 0  9990
2 50489  87.9232  23.2996 0001521 109.2565 250.8732 13.18688389189906
ONEWEB-0413             
1 50490U 21132X   25292.27736981  .00000155  00000+0  35940-3 0  9994
2 50490  87.9233  23.3160 0001659 112.0239 248.1069 13.18685268189844
ONEWEB-0414             
1 50491U 21132Y   25292.26252770  .00000099  00000+0  21821-3 0  9993
2 50491  87.9231  23.2776 0001573 101.3389 258.7920 13.18685495189875
ONEWEB-0417             
1 50492U 21132Z   25292.27077844  .00000033  00000+0  50482-4 0  9996
2 50492  87.9233  23.3094 0001806  93.8760 266.2579 13.18685544189856
ONEWEB-0418             
1 50493U 21132AA  25292.28053693  .00000066  00000+0  13446-3 0  9998
2 50493  87.9233  23.2929 0001855  86.3549 273.7795 13.18685115189913
