[{"OBJECT_NAME":"ONEWEB-0397","OBJECT_ID":"2021-132J","EPOCH":"2025-10-19T06:34:39.687744","MEAN_MOTION":13.18685264,"ECCENTRICITY":0.00015889,"INCLINATION":87.9231,"RA_OF_ASC_NODE":23.2939,"ARG_OF_PERICENTER":101.268,"MEAN_ANOMALY":258.8631,"EPHEMERIS_TYPE":0,"CLASSIFICATION_TYPE":"U","NORAD_CAT_ID":50477,"ELEMENT_SET_NO":999,"REV_AT_EPOCH":18986,"BSTAR":0.00014754449,"MEAN_MOTION_DOT":7.1e-7,"MEAN_MOTION_DDOT":0},{"OBJECT_NAME":"ONEWEB-0398","OBJECT_ID":"2021-132K","EPOCH":"2025-10-19T02:43:11.511552","MEAN_MOTION":13.11416358,"ECCENTRICITY":0.00020255,"INCLINATION":87.8833,"RA_OF_ASC_NODE":69.057,"ARG_OF_PERICENTER":93.7257,"MEAN_ANOMALY":266.4102,"EPHEMERIS_TYPE":0,"CLASSIFICATION_TYPE":"U","NORAD_CAT_ID":50478,"ELEMENT_SET_NO":999,"REV_AT_EPOCH":18401,"BSTAR":-0.0013900985,"MEAN_MOTION_DOT":-4.8e-6,"MEAN_MOTION_DDOT":0},{"OBJECT_NAME":"ONEWEB-0399","OBJECT_ID":"2021-132L","EPOCH":"2025-10-19T07:53:15.348768","MEAN_MOTION":13.11416908,"ECCENTRICITY":0.00012934,"INCLINATION":87.8821,"RA_OF_ASC_NODE":69.0326,"ARG_OF_PERICENTER":79.293,"MEAN_ANOMALY":280.8343,"EPHEMERIS_TYPE":0,"CLASSIFICATION_TYPE":"U","NORAD_CAT_ID":50479,"ELEMENT_SET_NO":999,"REV_AT_EPOCH":18403,"BSTAR":-0.0011366165,"MEAN_MOTION_DOT":-3.9e-6,"MEAN_MOTION_DDOT":0},{"OBJECT_NAME":"ONEWEB-0400","OBJECT_ID":"2021-132M","EPOCH":"2025-10-19T06:03:47.066112","MEAN_MOTION":13.18685686,"ECCENTRICITY":0.00019775,"INCLINATION":87.9229,"RA_OF_ASC_NODE":23.2881,"ARG_OF_PERICENTER":100.7801,"MEAN_ANOMALY":259.3553,"EPHEMERIS_TYPE":0,"CLASSIFICATION_TYPE":"U","NORAD_CAT_ID":50480,"ELEMENT_SET_NO":999,"REV_AT_EPOCH":18985,"BSTAR":0.00026122461,"MEAN_MOTION_DOT":1.16e-6,"MEAN_MOTION_DDOT":0},{"OBJECT_NAME":"ONEWEB-0401","OBJECT_ID":"2021-132N","EPOCH":"2025-10-19T05:18:39.795552","MEAN_MOTION":13.18685182,"ECCENTRICITY":0.00016435,"INCLINATION":87.9231,"RA_OF_ASC_NODE":23.2917,"ARG_OF_PERICENTER":105.7524,"MEAN_ANOMALY":254.3789,"EPHEMERIS_TYPE":0,"CLASSIFICATION_TYPE":"U","NORAD_CAT_ID":50481,"ELEMENT_SET_NO":999,"REV_AT_EPOCH":18985,"BSTAR":9.9875931e-5,"MEAN_MOTION_DOT":5.2e-7,"MEAN_MOTION_DDOT":0},{"OBJECT_NAME":"ONEWEB-0402","OBJECT_ID":"2021-132P","EPOCH":"2025-10-19T06:15:39.662208","MEAN_MOTION":13.18685,"ECCENTRICITY":0.00014087,"INCLINATION":87.9228,"RA_OF_ASC_NODE":23.2764,"ARG_OF_PERICENTER":120.4826,"MEAN_ANOMALY":239.6446,"EPHEMERIS_TYPE":0,"CLASSIFICATION_TYPE":"U","NORAD_CAT_ID":50482,"ELEMENT_SET_NO":999,"REV_AT_EPOCH":18988,"BSTAR":0.00013744239,"MEAN_MOTION_DOT":6.7e-7,"MEAN_MOTION_DDOT":0},{"OBJECT_NAME":"ONEWEB-0403","OBJECT_ID":"2021-132Q","EPOCH":"2025-10-19T06:51:17.188704","MEAN_MOTION":13.18685118,"ECCENTRICITY":0.00017988,"INCLINATION":87.9234,"RA_OF_ASC_NODE":23.2917,"ARG_OF_PERICENTER":97.9452,"MEAN_ANOMALY":262.1884,"EPHEMERIS_TYPE":0,"CLASSIFICATION_TYPE":"U","NORAD_CAT_ID":50483,"ELEMENT_SET_NO":999,"REV_AT_EPOCH":18984,"BSTAR":0.00015550431,"MEAN_MOTION_DOT":7.4e-7,"MEAN_MOTION_DDOT":0},{"OBJECT_NAME":"ONEWEB-0404","OBJECT_ID":"2021-132R","EPOCH":"2025-10-19T07:26:25.314144","MEAN_MOTION":13.11414481,"ECCENTRICITY":0.00015376,"INCLINATION":87.8823,"RA_OF_ASC_NODE":69.044,"ARG_OF_PERICENTER":82.5883,"MEAN_ANOMALY":277.542,"EPHEMERIS_TYPE":0,"CLASSIFICATION_TYPE":"U","NORAD_CAT_ID":50484,"ELEMENT_SET_NO":999,"REV_AT_EPOCH":18412,"BSTAR":0.00046074812,"MEAN_MOTION_DOT":1.76e-6,"MEAN_MOTION_DDOT":0},{"OBJECT_NAME":"ONEWEB-0405","OBJECT_ID":"2021-132S","EPOCH":"2025-10-19T07:12:39.724992","MEAN_MOTION":13.18684325,"ECCENTRICITY":0.0001507,"INCLINATION":87.9232,"RA_OF_ASC_NODE":23.2733,"ARG_OF_PERICENTER":105.0761,"MEAN_ANOMALY":255.0538,"EPHEMERIS_TYPE":0,"CLASSIFICATION_TYPE":"U","NORAD_CAT_ID":50485,"ELEMENT_SET_NO":999,"REV_AT_EPOCH":19024,"BSTAR":1.676956e-6,"MEAN_MOTION_DOT":1.4e-7,"MEAN_MOTION_DDOT":0},{"OBJECT_NAME":"ONEWEB-0406","OBJECT_ID":"2021-132T","EPOCH":"2025-10-19T06:58:25.747392","MEAN_MOTION":13.18684973,"ECCENTRICITY":0.00020161,"INCLINATION":87.9233,"RA_OF_ASC_NODE":23.2992,"ARG_OF_PERICENTER":87.339,"MEAN_ANOMALY":272.7973,"EPHEMERIS_TYPE":0,"CLASSIFICATION_TYPE":"U","NORAD_CAT_ID":50486,"ELEMENT_SET_NO":999,"REV_AT_EPOCH":18987,"BSTAR":7.575703e-6,"MEAN_MOTION_DOT":1.6e-7,"MEAN_MOTION_DDOT":0},{"OBJECT_NAME":"ONEWEB-0407","OBJECT_ID":"2021-132U","EPOCH":"2025-10-19T06:48:54.813600","MEAN_MOTION":13.18684091,"ECCENTRICITY":0.00017442,"INCLINATION":87.9229,"RA_OF_ASC_NODE":23.2839,"ARG_OF_PERICENTER":106.3934,"MEAN_ANOMALY":253.739,"EPHEMERIS_TYPE":0,"CLASSIFICATION_TYPE":"U","NORAD_CAT_ID":50487,"ELEMENT_SET_NO":999,"REV_AT_EPOCH":18981,"BSTAR":2.2021134e-5,"MEAN_MOTION_DOT":2.2e-7,"MEAN_MOTION_DDOT":0},{"OBJECT_NAME":"ONEWEB-0409","OBJECT_ID":"2021-132V","EPOCH":"2025-10-19T07:23:58.600032","MEAN_MOTION":13.11416992,"ECCENTRICITY":0.0001889,"INCLINATION":87.8842,"RA_OF_ASC_NODE":69.0058,"ARG_OF_PERICENTER":87.6249,"MEAN_ANOMALY":272.5096,"EPHEMERIS_TYPE":0,"CLASSIFICATION_TYPE":"U","NORAD_CAT_ID":50488,"ELEMENT_SET_NO":999,"REV_AT_EPOCH":18401,"BSTAR":0.0016200505,"MEAN_MOTION_DOT":5.87e-6,"MEAN_MOTION_DDOT":0},{"OBJECT_NAME":"ONEWEB-0412","OBJECT_ID":"2021-132W","EPOCH":"2025-10-19T06:32:16.522080","MEAN_MOTION":13.18688389,"ECCENTRICITY":0.00015212,"INCLINATION":87.9232,"RA_OF_ASC_NODE":23.2996,"ARG_OF_PERICENTER":109.2565,"MEAN_ANOMALY":250.8732,"EPHEMERIS_TYPE":0,"CLASSIFICATION_TYPE":"U","NORAD_CAT_ID":50489,"ELEMENT_SET_NO":999,"REV_AT_EPOCH":18990,"BSTAR":0.00026486025,"MEAN_MOTION_DOT":1.17e-6,"MEAN_MOTION_DDOT":0},{"OBJECT_NAME":"ONEWEB-0413","OBJECT_ID":"2021-132X","EPOCH":"2025-10-19T06:39:24.751584","MEAN_MOTION":13.18685268,"ECCENTRICITY":0.00016594,"INCLINATION":87.9233,"RA_OF_ASC_NODE":23.316,"ARG_OF_PERICENTER":112.0239,"MEAN_ANOMALY":248.1069,"EPHEMERIS_TYPE":0,"CLASSIFICATION_TYPE":"U","NORAD_CAT_ID":50490,"ELEMENT_SET_NO":999,"REV_AT_EPOCH":18984,"BSTAR":0.00035939791,"MEAN_MOTION_DOT":1.55e-6,"MEAN_MOTION_DDOT":0},{"OBJECT_NAME":"ONEWEB-0414","OBJECT_ID":"2021-132Y","EPOCH":"2025-10-19T06:18:02.393280","MEAN_MOTION":13.18685495,"ECCENTRICITY":0.00015738,"INCLINATION":87.9231,"RA_OF_ASC_NODE":23.2776,"ARG_OF_PERICENTER":101.3389,"MEAN_ANOMALY":258.792,"EPHEMERIS_TYPE":0,"CLASSIFICATION_TYPE":"U","NORAD_CAT_ID":50491,"ELEMENT_SET_NO":999,"REV_AT_EPOCH":18987,"BSTAR":0.00021820921,"MEAN_MOTION_DOT":9.9e-7,"MEAN_MOTION_DDOT":0},{"OBJECT_NAME":"ONEWEB-0417","OBJECT_ID":"2021-132Z","EPOCH":"2025-10-19T06:29:55.257216","MEAN_MOTION":13.18685544,"ECCENTRICITY":0.00018064,"INCLINATION":87.9233,"RA_OF_ASC_NODE":23.3094,"ARG_OF_PERICENTER":93.876,"MEAN_ANOMALY":266.2579,"EPHEMERIS_TYPE":0,"CLASSIFICATION_TYPE":"U","NORAD_CAT_ID":50492,"ELEMENT_SET_NO":999,"REV_AT_EPOCH":18985,"BSTAR":5.0481629e-5,"MEAN_MOTION_DOT":3.3e-7,"MEAN_MOTION_DDOT":0},{"OBJECT_NAME":"ONEWEB-0418","OBJECT_ID":"2021-132AA","EPOCH":"2025-10-19T06:43:58.390752","MEAN_MOTION":13.18685115,"ECCENTRICITY":0.00018556,"INCLINATION":87.9233,"RA_OF_ASC_NODE":23.2929,"ARG_OF_PERICENTER":86.3549,"MEAN_ANOMALY":273.7795,"EPHEMERIS_TYPE":0,"CLASSIFICATION_TYPE":"U","NORAD_CAT_ID":50493,"ELEMENT_SET_NO":999,"REV_AT_EPOCH":18991,"BSTAR":0.00013445874,"MEAN_MOTION_DOT":6.6e-7,"MEAN_MOTION_DDOT":0}]
